{
  "norad_id": 55746,
  "name": "STARLINK-5579",
  "history": [
    {
      "epoch": "2026-03-28T17:36:32.406624Z",
      "apogee_km": 574.1164062409371,
      "perigee_km": 569.9878548935976,
      "latitude_deg": 2.4995578483578036e-05,
      "longitude_deg": 106.11936957739377,
      "height_km": 574.5153478878057,
      "semi_major_axis_km": 6950.189130567267,
      "eccentricity": 0.00029701,
      "inclination_deg": 70.0011,
      "raan_deg": 196.4043,
      "arg_perigee_deg": 269.0088,
      "mean_anomaly_deg": 91.0731,
      "mean_motion_rev_day": 14.98331216
    },
    {
      "epoch": "2026-03-30T00:03:05.549184Z",
      "apogee_km": 574.1062777627258,
      "perigee_km": 570.0027456903726,
      "latitude_deg": -7.288928860019225e-05,
      "longitude_deg": 5.033309877632741,
      "height_km": 574.5069816248507,
      "semi_major_axis_km": 6950.191511726549,
      "eccentricity": 0.00029521,
      "inclination_deg": 70.0013,
      "raan_deg": 193.2066,
      "arg_perigee_deg": 269.303,
      "mean_anomaly_deg": 90.779,
      "mean_motion_rev_day": 14.98330446
    },
    {
      "epoch": "2026-03-30T12:52:10.341120Z",
      "apogee_km": 574.1040626051654,
      "perigee_km": 570.0263789622313,
      "latitude_deg": 1.0556720222741345e-05,
      "longitude_deg": 170.89065783613273,
      "height_km": 574.5115746881871,
      "semi_major_axis_km": 6950.202220783698,
      "eccentricity": 0.00029335,
      "inclination_deg": 70.0013,
      "raan_deg": 191.8603,
      "arg_perigee_deg": 269.4696,
      "mean_anomaly_deg": 90.6127,
      "mean_motion_rev_day": 14.98326983
    }
  ]
}